[{"OBJECT_NAME":"STARLINK-30957","OBJECT_ID":"2023-183S","EPOCH":"2026-03-08T23:56:13.975872","MEAN_MOTION":15.26747443,"ECCENTRICITY":0.00015318,"INCLINATION":43.0053,"RA_OF_ASC_NODE":45.0847,"ARG_OF_PERICENTER":274.814,"MEAN_ANOMALY":85.2537,"EPHEMERIS_TYPE":0,"CLASSIFICATION_TYPE":"U","NORAD_CAT_ID":58453,"ELEMENT_SET_NO":999,"REV_AT_EPOCH":12663,"BSTAR":0.00010846867,"MEAN_MOTION_DOT":2.651e-5,"MEAN_MOTION_DDOT":0},{"OBJECT_NAME":"FLOCK 4G-2","OBJECT_ID":"2025-009BE","EPOCH":"2026-03-09T15:53:23.273952","MEAN_MOTION":15.2767526,"ECCENTRICITY":0.00031811,"INCLINATION":97.4044,"RA_OF_ASC_NODE":151.2221,"ARG_OF_PERICENTER":329.2677,"MEAN_ANOMALY":30.8376,"EPHEMERIS_TYPE":0,"CLASSIFICATION_TYPE":"U","NORAD_CAT_ID":62661,"ELEMENT_SET_NO":999,"REV_AT_EPOCH":12132,"BSTAR":0.00051068481,"MEAN_MOTION_DOT":0.00013752,"MEAN_MOTION_DDOT":0}]
